{"type": "FeatureCollection", "features": [ {"type": "Feature", "properties": {"norad_id": 37834, "name": "INTELSAT 18 (IS-18)", "group": "intelsat", "lat": 0.002605662032506263, "lon": 130.61375324533208, "alt_km": 35792.627519087844, "timestamp": "2025-12-21T14:40:47.578474+00:00", "meta": {"OBJECT_NAME": "INTELSAT 18 (IS-18)", "OBJECT_ID": "2011-056A", "EPOCH": "2025-12-21T03:46:55.761312", "MEAN_MOTION": 1.00272429, "ECCENTRICITY": 0.0001706, "INCLINATION": 0.0317, "RA_OF_ASC_NODE": 281.2833, "ARG_OF_PERICENTER": 8.8906, "MEAN_ANOMALY": 36.5404, "EPHEMERIS_TYPE": 0, "CLASSIFICATION_TYPE": "U", "NORAD_CAT_ID": 37834, "ELEMENT_SET_NO": 999, "REV_AT_EPOCH": 5202, "BSTAR": 0, "MEAN_MOTION_DOT": 7.6e-07, "MEAN_MOTION_DDOT": 0}, "tle": {"line1": "1 37834U 11056A   25355.15758983  .00000076  00000+0  00000+0 0  9995", "line2": "2 37834   0.0317 281.2833 0001706   8.8906  36.5404  1.00272429 52028"}}, "geometry": {"type": "Point", "coordinates": [130.61375324533208, 0.002605662032506263]}}, {"type": "Feature", "properties": {"norad_id": 38098, "name": "INTELSAT 22 (IS-22)", "group": "intelsat", "lat": -0.0015262960152368612, "lon": 22.728046074496284, "alt_km": 35788.45516717209, "timestamp": "2025-12-21T14:40:47.578486+00:00", "meta": {"OBJECT_NAME": "INTELSAT 22 (IS-22)", "OBJECT_ID": "2012-011A", "EPOCH": "2025-12-21T03:59:38.774400", "MEAN_MOTION": 1.002706, "ECCENTRICITY": 0.00018021, "INCLINATION": 0.0158, "RA_OF_ASC_NODE": 42.157, "ARG_OF_PERICENTER": 235.089, "MEAN_ANOMALY": 304.7466, "EPHEMERIS_TYPE": 0, "CLASSIFICATION_TYPE": "U", "NORAD_CAT_ID": 38098, "ELEMENT_SET_NO": 999, "REV_AT_EPOCH": 540, "BSTAR": 0, "MEAN_MOTION_DOT": -3.5e-07, "MEAN_MOTION_DDOT": 0}, "tle": {"line1": "1 38098U 12011A   25355.16642100 -.00000035  00000+0  00000+0 0  9990", "line2": "2 38098   0.0158  42.1570 0001802 235.0890 304.7466  1.00270600  5406"}}, "geometry": {"type": "Point", "coordinates": [22.728046074496284, -0.0015262960152368612]}}, {"type": "Feature", "properties": {"norad_id": 38356, "name": "INTELSAT 19 (IS-19)", "group": "intelsat", "lat": 0.035685860408902044, "lon": 116.60099429017797, "alt_km": 35796.278472937556, "timestamp": "2025-12-21T14:40:47.578498+00:00", "meta": {"OBJECT_NAME": "INTELSAT 19 (IS-19)", "OBJECT_ID": "2012-030A", "EPOCH": "2025-12-21T03:42:56.143872", "MEAN_MOTION": 1.00271301, "ECCENTRICITY": 0.00027419, "INCLINATION": 0.0109, "RA_OF_ASC_NODE": 14.0621, "ARG_OF_PERICENTER": 252.5866, "MEAN_ANOMALY": 45.0624, "EPHEMERIS_TYPE": 0, "CLASSIFICATION_TYPE": "U", "NORAD_CAT_ID": 38356, "ELEMENT_SET_NO": 999, "REV_AT_EPOCH": 4866, "BSTAR": 0, "MEAN_MOTION_DOT": -3.3e-07, "MEAN_MOTION_DDOT": 0}, "tle": {"line1": "1 38356U 12030A   25355.15481648 -.00000033  00000+0  00000+0 0  9993", "line2": "2 38356   0.0109  14.0621 0002741 252.5866  45.0624  1.00271301 48669"}}, "geometry": {"type": "Point", "coordinates": [116.60099429017797, 0.035685860408902044]}}, {"type": "Feature", "properties": {"norad_id": 38740, "name": "INTELSAT 20 (IS-20)", "group": "intelsat", "lat": -0.002304685477101453, "lon": 19.095003607138246, "alt_km": 35799.99687310404, "timestamp": "2025-12-21T14:40:47.578510+00:00", "meta": {"OBJECT_NAME": "INTELSAT 20 (IS-20)", "OBJECT_ID": "2012-043A", "EPOCH": "2025-12-21T04:57:48.972384", "MEAN_MOTION": 1.00271341, "ECCENTRICITY": 0.00034329, "INCLINATION": 0.0098, "RA_OF_ASC_NODE": 82.8196, "ARG_OF_PERICENTER": 99.7403, "MEAN_ANOMALY": 50.4118, "EPHEMERIS_TYPE": 0, "CLASSIFICATION_TYPE": "U", "NORAD_CAT_ID": 38740, "ELEMENT_SET_NO": 999, "REV_AT_EPOCH": 4896, "BSTAR": 0, "MEAN_MOTION_DOT": -1e-08, "MEAN_MOTION_DDOT": 0}, "tle": {"line1": "1 38740U 12043A   25355.20681681 -.00000001  00000+0  00000+0 0  9994", "line2": "2 38740   0.0098  82.8196 0003432  99.7403  50.4118  1.00271341 48964"}}, "geometry": {"type": "Point", "coordinates": [19.095003607138246, -0.002304685477101453]}}, {"type": "Feature", "properties": {"norad_id": 38749, "name": "INTELSAT 21 (IS-21)", "group": "intelsat", "lat": -0.03000664795853021, "lon": -107.38201707710616, "alt_km": 35779.69706466363, "timestamp": "2025-12-21T14:40:47.578523+00:00", "meta": {"OBJECT_NAME": "INTELSAT 21 (IS-21)", "OBJECT_ID": "2012-045A", "EPOCH": "2025-12-21T06:04:25.312800", "MEAN_MOTION": 1.00272049, "ECCENTRICITY": 0.00015175, "INCLINATION": 0.0234, "RA_OF_ASC_NODE": 291.4489, "ARG_OF_PERICENTER": 329.5938, "MEAN_ANOMALY": 222.1397, "EPHEMERIS_TYPE": 0, "CLASSIFICATION_TYPE": "U", "NORAD_CAT_ID": 38749, "ELEMENT_SET_NO": 999, "REV_AT_EPOCH": 4874, "BSTAR": 0, "MEAN_MOTION_DOT": -2.62e-06, "MEAN_MOTION_DDOT": 0}, "tle": {"line1": "1 38749U 12045A   25355.25307075 -.00000262  00000+0  00000+0 0  9991", "line2": "2 38749   0.0234 291.4489 0001517 329.5938 222.1397  1.00272049 48746"}}, "geometry": {"type": "Point", "coordinates": [-107.38201707710616, -0.03000664795853021]}}, {"type": "Feature", "properties": {"norad_id": 38867, "name": "INTELSAT 23 (IS-23)", "group": "intelsat", "lat": -0.01966645026837915, "lon": -102.36491588554395, "alt_km": 35784.761098177514, "timestamp": "2025-12-21T14:40:47.578535+00:00", "meta": {"OBJECT_NAME": "INTELSAT 23 (IS-23)", "OBJECT_ID": "2012-057A", "EPOCH": "2025-12-21T06:05:55.169664", "MEAN_MOTION": 1.00269368, "ECCENTRICITY": 6.501e-05, "INCLINATION": 0.016, "RA_OF_ASC_NODE": 65.1862, "ARG_OF_PERICENTER": 234.6608, "MEAN_ANOMALY": 188.7337, "EPHEMERIS_TYPE": 0, "CLASSIFICATION_TYPE": "U", "NORAD_CAT_ID": 38867, "ELEMENT_SET_NO": 999, "REV_AT_EPOCH": 4817, "BSTAR": 0, "MEAN_MOTION_DOT": -2.62e-06, "MEAN_MOTION_DDOT": 0}, "tle": {"line1": "1 38867U 12057A   25355.25411076 -.00000262  00000+0  00000+0 0  9992", "line2": "2 38867   0.0160  65.1862 0000650 234.6608 188.7337  1.00269368 48171"}}, "geometry": {"type": "Point", "coordinates": [-102.36491588554395, -0.01966645026837915]}}, {"type": "Feature", "properties": {"norad_id": 39360, "name": "FM-6", "group": "intelsat", "lat": 0.007389489863876854, "lon": -165.52769026611895, "alt_km": 35773.01719497077, "timestamp": "2025-12-21T14:40:47.578547+00:00", "meta": {"OBJECT_NAME": "FM-6", "OBJECT_ID": "2013-058A", "EPOCH": "2025-12-21T04:48:07.324992", "MEAN_MOTION": 1.00273634, "ECCENTRICITY": 0.00030764, "INCLINATION": 0.0118, "RA_OF_ASC_NODE": 62.4379, "ARG_OF_PERICENTER": 118.2763, "MEAN_ANOMALY": 225.1818, "EPHEMERIS_TYPE": 0, "CLASSIFICATION_TYPE": "U", "NORAD_CAT_ID": 39360, "ELEMENT_SET_NO": 999, "REV_AT_EPOCH": 4428, "BSTAR": 0, "MEAN_MOTION_DOT": 6e-08, "MEAN_MOTION_DDOT": 0}, "tle": {"line1": "1 39360U 13058A   25355.20008478  .00000006  00000+0  00000+0 0  9991", "line2": "2 39360   0.0118  62.4379 0003076 118.2763 225.1818  1.00273634 44289"}}, "geometry": {"type": "Point", "coordinates": [-165.52769026611895, 0.007389489863876854]}}, {"type": "Feature", "properties": {"norad_id": 40271, "name": "INTELSAT 30 (IS-30)", "group": "intelsat", "lat": -0.014893198375295848, "lon": -144.41446889438677, "alt_km": 35790.05503492381, "timestamp": "2025-12-21T14:40:47.578559+00:00", "meta": {"OBJECT_NAME": "INTELSAT 30 (IS-30)", "OBJECT_ID": "2014-062A", "EPOCH": "2025-12-21T02:28:25.779360", "MEAN_MOTION": 1.00271873, "ECCENTRICITY": 0.00016539, "INCLINATION": 0.0153, "RA_OF_ASC_NODE": 22.7027, "ARG_OF_PERICENTER": 68.3073, "MEAN_ANOMALY": 300.9758, "EPHEMERIS_TYPE": 0, "CLASSIFICATION_TYPE": "U", "NORAD_CAT_ID": 40271, "ELEMENT_SET_NO": 999, "REV_AT_EPOCH": 500, "BSTAR": 0, "MEAN_MOTION_DOT": -1.28e-06, "MEAN_MOTION_DDOT": 0}, "tle": {"line1": "1 40271U 14062A   25355.10307615 -.00000128  00000+0  00000+0 0  9990", "line2": "2 40271   0.0153  22.7027 0001653  68.3073 300.9758  1.00271873  5003"}}, "geometry": {"type": "Point", "coordinates": [-144.41446889438677, -0.014893198375295848]}}, {"type": "Feature", "properties": {"norad_id": 40333, "name": "DIRECTV 14", "group": "intelsat", "lat": -0.025620254505020205, "lon": -148.59801987665216, "alt_km": 35786.465145243965, "timestamp": "2025-12-21T14:40:47.578571+00:00", "meta": {"OBJECT_NAME": "DIRECTV 14", "OBJECT_ID": "2014-078B", "EPOCH": "2025-12-21T05:52:41.437056", "MEAN_MOTION": 1.00270525, "ECCENTRICITY": 2.554e-05, "INCLINATION": 0.0133, "RA_OF_ASC_NODE": 341.0834, "ARG_OF_PERICENTER": 139.7294, "MEAN_ANOMALY": 318.2092, "EPHEMERIS_TYPE": 0, "CLASSIFICATION_TYPE": "U", "NORAD_CAT_ID": 40333, "ELEMENT_SET_NO": 999, "REV_AT_EPOCH": 4025, "BSTAR": 0, "MEAN_MOTION_DOT": -1.02e-06, "MEAN_MOTION_DDOT": 0}, "tle": {"line1": "1 40333U 14078B   25355.24492404 -.00000102  00000+0  00000+0 0  9994", "line2": "2 40333   0.0133 341.0834 0000255 139.7294 318.2092  1.00270525 40250"}}, "geometry": {"type": "Point", "coordinates": [-148.59801987665216, -0.025620254505020205]}}, {"type": "Feature", "properties": {"norad_id": 40663, "name": "DIRECTV 15", "group": "intelsat", "lat": -0.012803584896846708, "lon": -152.2600362597713, "alt_km": 35786.20132969114, "timestamp": "2025-12-21T14:40:47.578583+00:00", "meta": {"OBJECT_NAME": "DIRECTV 15", "OBJECT_ID": "2015-026A", "EPOCH": "2025-12-21T04:16:38.932896", "MEAN_MOTION": 1.00269805, "ECCENTRICITY": 3.417e-05, "INCLINATION": 0.025, "RA_OF_ASC_NODE": 19.43, "ARG_OF_PERICENTER": 116.583, "MEAN_ANOMALY": 275.2713, "EPHEMERIS_TYPE": 0, "CLASSIFICATION_TYPE": "U", "NORAD_CAT_ID": 40663, "ELEMENT_SET_NO": 999, "REV_AT_EPOCH": 3867, "BSTAR": 0, "MEAN_MOTION_DOT": 0, "MEAN_MOTION_DDOT": 0}, "tle": {"line1": "1 40663U 15026A   25355.17822839  .00000000  00000+0  00000+0 0  9991", "line2": "2 40663   0.0250  19.4300 0000341 116.5830 275.2713  1.00269805 38679"}}, "geometry": {"type": "Point", "coordinates": [-152.2600362597713, -0.012803584896846708]}}]}